NORAD_CAT_ID,OBJECT_NAME,OBJECT_TYPE,EPOCH,MEAN_MOTION,ECCENTRICITY,INCLINATION,RA_OF_ASC_NODE,ARG_OF_PERICENTER,MEAN_ANOMALY,BSTAR,MEAN_MOTION_DOT,MEAN_MOTION_DDOT,TLE_LINE0,TLE_LINE1,TLE_LINE2,SEMIMAJOR_AXIS,PERIOD,APOGEE,PERIGEE,DECAYED
54796.0,STARLINK-5415,PAYLOAD,2023-01-07 19:29:40,15.73217656,0.0001520999999999,53.2139,202.1962,109.3305,250.788,0.00012094,0.00016399,0.0,0 STARLINK-5415,1 54796U 22175AQ  23007.81226976  .00016399  00000-0  12094-3 0  9998,2 54796  53.2139 202.1962 0001521 109.3305 250.7880 15.73217656  3048,6727.845,91.532,350.733,348.6869999999999,0.0
54796.0,STARLINK-5415,PAYLOAD,2023-01-08 12:15:57,15.73210203,0.000135,53.213,198.7356,110.1658,249.9508,0.0001076,0.00014513,0.0,0 STARLINK-5415,1 54796U 22175AQ  23008.51107894  .00014513  00000-0  10760-3 0  9997,2 54796  53.2130 198.7356 0001350 110.1658 249.9508 15.73210203  3157,6727.866,91.533,350.639,348.8230000000001,0.0
54796.0,STARLINK-5415,PAYLOAD,2023-01-08 21:24:50,15.73203213,7.43e-05,53.2146,196.8511,104.6658,255.4445,2.3097e-05,2.624e-05,0.0,0 STARLINK-5415,1 54796U 22175AQ  23008.89224744  .00002624  00000-0  23097-4 0  9990,2 54796  53.2146 196.8511 0000743 104.6658 255.4445 15.73203213  5370,6727.886,91.533,350.251,349.251,0.0
54796.0,STARLINK-5415,PAYLOAD,2023-01-09 05:02:13,15.73215972,6.3e-05,53.2155,195.2799,101.302,258.807,5.2232e-05,6.722e-05,0.0,0 STARLINK-5415,1 54796U 22175AQ  23009.20988413  .00006722  00000-0  52232-4 0  9992,2 54796  53.2155 195.2799 0000630 101.3020 258.8070 15.73215972  3265,6727.85,91.532,350.1380000000001,349.291,0.0
54796.0,STARLINK-5415,PAYLOAD,2023-01-09 14:11:07,15.73207899,0.0001254,53.2149,193.3907,74.59899999999998,285.5169,3.4337e-05,4.203e-05,0.0,0 STARLINK-5415,1 54796U 22175AQ  23009.59105727  .00004203  00000-0  34337-4 0  9991,2 54796  53.2149 193.3907 0001254  74.5990 285.5169 15.73207899  3320,6727.873000000001,91.533,350.581,348.894,0.0
54796.0,STARLINK-5415,PAYLOAD,2023-01-10 11:31:50,15.73218007,9.38e-05,53.2149,188.9913,58.036,302.0751,4.1894e-05,5.268e-05,0.0,0 STARLINK-5415,1 54796U 22175AQ  23010.48044161  .00005268  00000-0  41894-4 0  9993,2 54796  53.2149 188.9913 0000938  58.0360 302.0751 15.73218007  5623,6727.844,91.532,350.34,349.0780000000001,0.0
54796.0,STARLINK-5415,PAYLOAD,2023-01-10 14:34:47,15.73207678,3.3799999999999995e-05,53.2165,188.3595,169.8501,190.2526,1.4828e-05,1.464e-05,0.0,0 STARLINK-5415,1 54796U 22175AQ  23010.60749715  .00001464  00000-0  14828-4 0  9995,2 54796  53.2165 188.3595 0000338 169.8501 190.2526 15.73207678  3484,6727.873000000001,91.533,349.966,349.511,0.0
54796.0,STARLINK-5415,PAYLOAD,2023-01-11 13:26:59,15.73208269,1.0800000000000003e-05,53.2169,183.6449,15.3335,344.7689,1.8028e-05,1.914e-05,0.0,0 STARLINK-5415,1 54796U 22175AQ  23011.56041511  .00001914  00000-0  18028-4 0  9996,2 54796  53.2169 183.6449 0000108  15.3335 344.7689 15.73208269  5798,6727.871999999999,91.533,349.809,349.664,0.0
54796.0,STARLINK-5415,PAYLOAD,2023-01-11 18:01:26,15.73208975,5.53e-05,53.2157,182.702,86.8327,273.2757,1.2844e-05,1.185e-05,0.0,0 STARLINK-5415,1 54796U 22175AQ  23011.75100043  .00001185  00000-0  12844-4 0  9993,2 54796  53.2157 182.7020 0000553  86.8327 273.2757 15.73208975  3668,6727.87,91.533,350.107,349.36300000000006,0.0
54796.0,STARLINK-5415,PAYLOAD,2023-01-11 21:04:24,15.7320878,6.02e-05,53.2156,182.0741,80.4041,279.7047,1.131e-05,9.69e-06,0.0,0 STARLINK-5415,1 54796U 22175AQ  23011.87805582  .00000969  00000-0  11310-4 0  9992,2 54796  53.2156 182.0741 0000602  80.4041 279.7047 15.73208780  5847,6727.87,91.533,350.14,349.33,0.0
54796.0,STARLINK-5415,PAYLOAD,2023-01-12 19:56:36,15.73201167,8.4e-05,53.2148,177.3606,78.4345,281.6769,2.3504e-05,2.681e-05,0.0,0 STARLINK-5415,1 54796U 22175AQ  23012.83097919  .00002681  00000-0  23504-4 0  9997,2 54796  53.2148 177.3606 0000840  78.4345 281.6769 15.73201167  3835,6727.892,91.533,350.32199999999995,349.19199999999995,0.0
54796.0,STARLINK-5415,PAYLOAD,2023-01-13 12:42:52,15.73218948,0.0001062,53.214,173.9021,94.0993,266.0148,2.3897e-05,2.738e-05,0.0,0 STARLINK-5415,1 54796U 22175AQ  23013.52977601  .00002738  00000-0  23897-4 0  9997,2 54796  53.2140 173.9021 0001062  94.0993 266.0148 15.73218948  6106,6727.840999999999,91.532,350.421,348.992,0.0
54796.0,STARLINK-5415,PAYLOAD,2023-01-13 17:17:18,15.73226308,5.660000000000001e-05,53.2184,172.9601,315.3611,44.7364,5.5018e-05,7.117e-05,0.0,0 STARLINK-5415,1 54796U 22175AQ  23013.72035240  .00007117  00000-0  55018-4 0  9999,2 54796  53.2184 172.9601 0000566 315.3611  44.7364 15.73226308  3973,6727.82,91.532,350.066,349.30400000000003,0.0
54796.0,STARLINK-5415,PAYLOAD,2023-01-14 10:03:35,15.73223983,0.0001004999999999,53.2146,169.5007,67.4521,292.6605,3.824e-05,4.756e-05,0.0,0 STARLINK-5415,1 54796U 22175AQ  23014.41916433  .00004756  00000-0  38240-4 0  9992,2 54796  53.2146 169.5007 0001005  67.4521 292.6605 15.73223983  4088,6727.826999999999,91.532,350.36800000000005,349.016,0.0
54796.0,STARLINK-5415,PAYLOAD,2023-01-14 19:12:29,15.73195866,0.0001139999999999,53.2137,167.6139,80.3803,279.7346,-5.3368e-06,-1.368e-05,0.0,0 STARLINK-5415,1 54796U 22175AQ  23014.80034532 -.00001368  00000-0 -53368-5 0  9993,2 54796  53.2137 167.6139 0001140  80.3803 279.7346 15.73195866  4143,6727.906999999999,91.533,350.539,349.005,0.0
54796.0,STARLINK-5415,PAYLOAD,2023-01-15 10:27:16,15.73240325,0.0001063,53.2139,164.4688,101.3831,258.7308,8.284299999999999e-05,0.00011042,0.0,0 STARLINK-5415,1 54796U 22175AQ  23015.43560717  .00011042  00000-0  82843-4 0  9999,2 54796  53.2139 164.4688 0001063 101.3831 258.7308 15.73240325  4245,6727.78,91.531,350.36,348.93,0.0
54796.0,STARLINK-5415,PAYLOAD,2023-01-15 13:30:14,15.73211516,0.000126,53.2132,163.8412,92.4921,267.6243,2.7733e-05,3.276e-05,0.0,0 STARLINK-5415,1 54796U 22175AQ  23015.56267157  .00003276  00000-0  27733-4 0  9992,2 54796  53.2132 163.8412 0001260  92.4921 267.6243 15.73211516  6424,6727.861999999999,91.533,350.575,348.88,0.0
54796.0,STARLINK-5415,PAYLOAD,2023-01-15 16:33:11,15.73232708,0.0001197,53.2143,163.2133,77.6676,282.4478,8.3737e-05,0.00011164,0.0,0 STARLINK-5415,1 54796U 22175AQ  23015.68972111  .00011164  00000-0  83737-4 0  9999,2 54796  53.2143 163.2133 0001197  77.6676 282.4478 15.73232708  4284,6727.802,91.531,350.472,348.862,0.0
54796.0,STARLINK-5415,PAYLOAD,2023-01-16 10:50:59,15.73179969,0.0001291,53.214,159.4406,80.6551,279.4615,-6.149399999999999e-05,-9.233e-05,0.0,0 STARLINK-5415,1 54796U 22175AQ  23016.45207288 -.00009233  00000-0 -61494-4 0  9993,2 54796  53.2140 159.4406 0001291  80.6551 279.4615 15.73179969  4404,6727.951999999999,91.534,350.686,348.949,0.0
54796.0,STARLINK-5415,PAYLOAD,2023-01-16 13:53:56,15.73189035,0.0001252,53.2144,158.8115,71.8588,288.2569,-3.3983e-05,-5.384e-05,0.0,0 STARLINK-5415,1 54796U 22175AQ  23016.57912756 -.00005384  00000-0 -33983-4 0  9994,2 54796  53.2144 158.8115 0001252  71.8588 288.2569 15.73189035  6589,6727.926,91.534,350.634,348.949,0.0
54796.0,STARLINK-5415,PAYLOAD,2023-01-16 15:25:25,15.73187809,0.0001337,53.2143,158.4974,61.287,298.8284,-4.1736e-05,-6.47e-05,0.0,0 STARLINK-5415,1 54796U 22175AQ  23016.64265499 -.00006470  00000-0 -41736-4 0  9999,2 54796  53.2143 158.4974 0001337  61.2870 298.8284 15.73187809  4438,6727.93,91.534,350.694,348.895,0.0
54796.0,STARLINK-5415,PAYLOAD,2023-01-17 05:08:44,15.73202196,0.0001001,53.2144,155.6667,78.7469,281.3663,3.101e-05,3.735e-05,0.0,0 STARLINK-5415,1 54796U 22175AQ  23017.21440937  .00003735  00000-0  31010-4 0  9998,2 54796  53.2144 155.6667 0001001  78.7469 281.3663 15.73202196  4527,6727.889,91.533,350.427,349.08,0.0
54796.0,STARLINK-5415,PAYLOAD,2023-01-17 11:14:39,15.7323651,0.0001496999999999,53.2133,154.4103,93.4133,266.7059,0.00011037,0.00014921,0.0,0 STARLINK-5415,1 54796U 22175AQ  23017.46850996  .00014921  00000-0  11037-3 0  9990,2 54796  53.2133 154.4103 0001497  93.4133 266.7059 15.73236510  6725,6727.791,91.531,350.663,348.649,0.0
54796.0,STARLINK-5415,PAYLOAD,2023-01-17 18:52:03,15.73208545,7.09e-05,53.2142,152.8393,53.7689,306.3397,3.794e-05,4.71e-05,0.0,0 STARLINK-5415,1 54796U 22175AQ  23017.78615304  .00004710  00000-0  37940-4 0  9994,2 54796  53.2142 152.8393 0000709  53.7689 306.3397 15.73208545  6776,6727.871,91.533,350.213,349.259,0.0
54796.0,STARLINK-5415,PAYLOAD,2023-01-18 08:35:22,15.73209326,6.65e-05,53.2129,150.0069,359.2184,0.8834,9.3315e-06,6.91e-06,0.0,0 STARLINK-5415,1 54796U 22175AQ  23018.35789958  .00000691  00000-0  93315-5 0  9998,2 54796  53.2129 150.0069 0000665 359.2184   0.8834 15.73209326  4707,6727.869000000001,91.533,350.181,349.286,0.0
54796.0,STARLINK-5415,PAYLOAD,2023-01-18 19:15:44,15.73205863,0.0001163,53.2144,147.80700000000002,60.7952,299.3184,-2.013e-06,-9.02e-06,0.0,0 STARLINK-5415,1 54796U 22175AQ  23018.80259798 -.00000902  00000-0 -20130-5 0  9994,2 54796  53.2144 147.8070 0001163  60.7952 299.3184 15.73205863  6933,6727.878000000001,91.533,350.526,348.961,0.0
54796.0,STARLINK-5415,PAYLOAD,2023-01-19 08:59:03,15.73217349,8.109999999999999e-05,53.2135,144.9775,88.8705,271.2408,1.257e-05,1.146e-05,0.0,0 STARLINK-5415,1 54796U 22175AQ  23019.37434440  .00001146  00000-0  12570-4 0  9993,2 54796  53.2135 144.9775 0000811  88.8705 271.2408 15.73217349  4869,6727.846,91.532,350.256,349.165,0.0
54796.0,STARLINK-5415,PAYLOAD,2023-01-19 18:07:56,15.73208011,9.1e-05,53.2144,143.0913,85.3132,274.7992,1.1237e-05,9.58e-06,0.0,0 STARLINK-5415,1 54796U 22175AQ  23019.75551496  .00000958  00000-0  11237-4 0  9995,2 54796  53.2144 143.0913 0000910  85.3132 274.7992 15.73208011  4928,6727.871999999999,91.533,350.35,349.125,0.0
54796.0,STARLINK-5415,PAYLOAD,2023-01-20 10:54:13,15.73229224,8.56e-05,53.2157,139.6331,103.0177,257.0939,8.9674e-05,0.00011999,0.0,0 STARLINK-5415,1 54796U 22175AQ  23020.45431715  .00011999  00000-0  89674-4 0  9992,2 54796  53.2157 139.6331 0000856 103.0177 257.0939 15.73229224  5030,6727.812,91.531,350.25300000000004,349.101,0.0
